[{"OBJECT_NAME":"STARLINK-31821","OBJECT_ID":"2024-090H","EPOCH":"2026-01-02T19:25:21.708192","MEAN_MOTION":15.27578719,"ECCENTRICITY":0.0002056,"INCLINATION":43.0017,"RA_OF_ASC_NODE":195.6312,"ARG_OF_PERICENTER":274.3303,"MEAN_ANOMALY":85.7313,"EPHEMERIS_TYPE":0,"CLASSIFICATION_TYPE":"U","NORAD_CAT_ID":59737,"ELEMENT_SET_NO":999,"REV_AT_EPOCH":9336,"BSTAR":-0.00026312,"MEAN_MOTION_DOT":-7.496e-5,"MEAN_MOTION_DDOT":0},{"OBJECT_NAME":"STARLINK-31819","OBJECT_ID":"2024-090J","EPOCH":"2026-01-02T19:19:47.867232","MEAN_MOTION":15.2757668,"ECCENTRICITY":7.03e-5,"INCLINATION":42.9977,"RA_OF_ASC_NODE":195.6031,"ARG_OF_PERICENTER":262.3344,"MEAN_ANOMALY":97.7428,"EPHEMERIS_TYPE":0,"CLASSIFICATION_TYPE":"U","NORAD_CAT_ID":59738,"ELEMENT_SET_NO":999,"REV_AT_EPOCH":9336,"BSTAR":1.0991e-5,"MEAN_MOTION_DOT":4.1e-7,"MEAN_MOTION_DDOT":0},{"OBJECT_NAME":"STARLINK-31726","OBJECT_ID":"2024-090K","EPOCH":"2026-01-02T14:00:19.038816","MEAN_MOTION":15.27577019,"ECCENTRICITY":0.00011586,"INCLINATION":43.0033,"RA_OF_ASC_NODE":196.523,"ARG_OF_PERICENTER":265.7666,"MEAN_ANOMALY":94.3053,"EPHEMERIS_TYPE":0,"CLASSIFICATION_TYPE":"U","NORAD_CAT_ID":59739,"ELEMENT_SET_NO":999,"REV_AT_EPOCH":9333,"BSTAR":4.6553064e-5,"MEAN_MOTION_DOT":1.019e-5,"MEAN_MOTION_DDOT":0},{"OBJECT_NAME":"STARLINK-31759","OBJECT_ID":"2024-090L","EPOCH":"2026-01-02T13:34:37.965216","MEAN_MOTION":15.27536581,"ECCENTRICITY":8.924e-5,"INCLINATION":43.0016,"RA_OF_ASC_NODE":197.2431,"ARG_OF_PERICENTER":250.8945,"MEAN_ANOMALY":109.181,"EPHEMERIS_TYPE":0,"CLASSIFICATION_TYPE":"U","NORAD_CAT_ID":59740,"ELEMENT_SET_NO":999,"REV_AT_EPOCH":9332,"BSTAR":0.00027814979,"MEAN_MOTION_DOT":7.39e-5,"MEAN_MOTION_DDOT":0},{"OBJECT_NAME":"STARLINK-31818","OBJECT_ID":"2024-090M","EPOCH":"2026-01-01T21:41:57.416064","MEAN_MOTION":15.27578093,"ECCENTRICITY":7.84e-5,"INCLINATION":42.9983,"RA_OF_ASC_NODE":200.8768,"ARG_OF_PERICENTER":267.7841,"MEAN_ANOMALY":92.2921,"EPHEMERIS_TYPE":0,"CLASSIFICATION_TYPE":"U","NORAD_CAT_ID":59741,"ELEMENT_SET_NO":999,"REV_AT_EPOCH":9322,"BSTAR":3.0878e-5,"MEAN_MOTION_DOT":5.88e-6,"MEAN_MOTION_DDOT":0},{"OBJECT_NAME":"STARLINK-31816","OBJECT_ID":"2024-090N","EPOCH":"2026-01-02T20:00:29.844864","MEAN_MOTION":15.27600286,"ECCENTRICITY":0.0001021,"INCLINATION":42.9977,"RA_OF_ASC_NODE":195.7925,"ARG_OF_PERICENTER":275.945,"MEAN_ANOMALY":84.1286,"EPHEMERIS_TYPE":0,"CLASSIFICATION_TYPE":"U","NORAD_CAT_ID":59742,"ELEMENT_SET_NO":999,"REV_AT_EPOCH":9334,"BSTAR":0.00027885,"MEAN_MOTION_DOT":7.424e-5,"MEAN_MOTION_DDOT":0},{"OBJECT_NAME":"STARLINK-31809","OBJECT_ID":"2024-090P","EPOCH":"2026-01-02T12:51:37.245600","MEAN_MOTION":15.27582565,"ECCENTRICITY":8.306e-5,"INCLINATION":43.0003,"RA_OF_ASC_NODE":190.098,"ARG_OF_PERICENTER":256.9043,"MEAN_ANOMALY":103.1716,"EPHEMERIS_TYPE":0,"CLASSIFICATION_TYPE":"U","NORAD_CAT_ID":59743,"ELEMENT_SET_NO":999,"REV_AT_EPOCH":9340,"BSTAR":-5.7949211e-5,"MEAN_MOTION_DOT":-1.856e-5,"MEAN_MOTION_DDOT":0},{"OBJECT_NAME":"STARLINK-31779","OBJECT_ID":"2024-090Q","EPOCH":"2026-01-02T12:37:15.964608","MEAN_MOTION":15.27580763,"ECCENTRICITY":0.00010232,"INCLINATION":43.0013,"RA_OF_ASC_NODE":196.9515,"ARG_OF_PERICENTER":282.9163,"MEAN_ANOMALY":77.1574,"EPHEMERIS_TYPE":0,"CLASSIFICATION_TYPE":"U","NORAD_CAT_ID":59744,"ELEMENT_SET_NO":999,"REV_AT_EPOCH":9332,"BSTAR":3.598215e-5,"MEAN_MOTION_DOT":7.28e-6,"MEAN_MOTION_DDOT":0},{"OBJECT_NAME":"STARLINK-31805","OBJECT_ID":"2024-090R","EPOCH":"2026-01-02T12:20:36.648384","MEAN_MOTION":15.27563968,"ECCENTRICITY":0.00013537,"INCLINATION":43.0025,"RA_OF_ASC_NODE":196.8597,"ARG_OF_PERICENTER":283.4682,"MEAN_ANOMALY":76.6019,"EPHEMERIS_TYPE":0,"CLASSIFICATION_TYPE":"U","NORAD_CAT_ID":59745,"ELEMENT_SET_NO":999,"REV_AT_EPOCH":9332,"BSTAR":0.00016348456,"MEAN_MOTION_DOT":4.237e-5,"MEAN_MOTION_DDOT":0},{"OBJECT_NAME":"STARLINK-31681","OBJECT_ID":"2024-090S","EPOCH":"2026-01-02T12:57:09.757728","MEAN_MOTION":15.27576939,"ECCENTRICITY":8.405e-5,"INCLINATION":42.997,"RA_OF_ASC_NODE":190.1283,"ARG_OF_PERICENTER":282.1205,"MEAN_ANOMALY":77.9552,"EPHEMERIS_TYPE":0,"CLASSIFICATION_TYPE":"U","NORAD_CAT_ID":59746,"ELEMENT_SET_NO":999,"REV_AT_EPOCH":9340,"BSTAR":1.992631e-5,"MEAN_MOTION_DOT":2.86e-6,"MEAN_MOTION_DDOT":0},{"OBJECT_NAME":"STARLINK-31636","OBJECT_ID":"2024-090T","EPOCH":"2026-01-02T14:15:07.734528","MEAN_MOTION":15.27576173,"ECCENTRICITY":0.00013391,"INCLINATION":43.0029,"RA_OF_ASC_NODE":196.6002,"ARG_OF_PERICENTER":272.5155,"MEAN_ANOMALY":87.5544,"EPHEMERIS_TYPE":0,"CLASSIFICATION_TYPE":"U","NORAD_CAT_ID":59747,"ELEMENT_SET_NO":999,"REV_AT_EPOCH":9333,"BSTAR":8.452672e-6,"MEAN_MOTION_DOT":-3.0e-7,"MEAN_MOTION_DDOT":0},{"OBJECT_NAME":"STARLINK-31640","OBJECT_ID":"2024-090U","EPOCH":"2026-01-02T19:21:38.902464","MEAN_MOTION":15.27577407,"ECCENTRICITY":0.0001526,"INCLINATION":43,"RA_OF_ASC_NODE":195.6072,"ARG_OF_PERICENTER":269.5477,"MEAN_ANOMALY":90.5199,"EPHEMERIS_TYPE":0,"CLASSIFICATION_TYPE":"U","NORAD_CAT_ID":59748,"ELEMENT_SET_NO":999,"REV_AT_EPOCH":9336,"BSTAR":-8.1724e-6,"MEAN_MOTION_DOT":-4.87e-6,"MEAN_MOTION_DDOT":0},{"OBJECT_NAME":"STARLINK-31677","OBJECT_ID":"2024-090V","EPOCH":"2026-01-02T19:45:41.937120","MEAN_MOTION":15.27576678,"ECCENTRICITY":9.44e-5,"INCLINATION":42.9975,"RA_OF_ASC_NODE":195.7358,"ARG_OF_PERICENTER":277.0271,"MEAN_ANOMALY":83.0473,"EPHEMERIS_TYPE":0,"CLASSIFICATION_TYPE":"U","NORAD_CAT_ID":59749,"ELEMENT_SET_NO":999,"REV_AT_EPOCH":9335,"BSTAR":-1.8077e-5,"MEAN_MOTION_DOT":-7.59e-6,"MEAN_MOTION_DDOT":0},{"OBJECT_NAME":"STARLINK-31783","OBJECT_ID":"2024-090W","EPOCH":"2026-01-02T19:56:48.050880","MEAN_MOTION":15.27582763,"ECCENTRICITY":8.87e-5,"INCLINATION":42.9986,"RA_OF_ASC_NODE":195.794,"ARG_OF_PERICENTER":280.9419,"MEAN_ANOMALY":79.1333,"EPHEMERIS_TYPE":0,"CLASSIFICATION_TYPE":"U","NORAD_CAT_ID":59750,"ELEMENT_SET_NO":999,"REV_AT_EPOCH":9335,"BSTAR":-1.9518e-5,"MEAN_MOTION_DOT":-7.99e-6,"MEAN_MOTION_DDOT":0},{"OBJECT_NAME":"STARLINK-31808","OBJECT_ID":"2024-090X","EPOCH":"2026-01-02T20:05:50.374176","MEAN_MOTION":15.27575514,"ECCENTRICITY":7.0e-5,"INCLINATION":42.9978,"RA_OF_ASC_NODE":194.98,"ARG_OF_PERICENTER":268.8553,"MEAN_ANOMALY":91.2218,"EPHEMERIS_TYPE":0,"CLASSIFICATION_TYPE":"U","NORAD_CAT_ID":59751,"ELEMENT_SET_NO":999,"REV_AT_EPOCH":9336,"BSTAR":3.861e-5,"MEAN_MOTION_DOT":8.01e-6,"MEAN_MOTION_DDOT":0},{"OBJECT_NAME":"STARLINK-31822","OBJECT_ID":"2024-090Y","EPOCH":"2026-01-02T16:00:01.999584","MEAN_MOTION":15.27575656,"ECCENTRICITY":0.00014104,"INCLINATION":43.0001,"RA_OF_ASC_NODE":196.2382,"ARG_OF_PERICENTER":266.0653,"MEAN_ANOMALY":113.8763,"EPHEMERIS_TYPE":0,"CLASSIFICATION_TYPE":"U","NORAD_CAT_ID":59752,"ELEMENT_SET_NO":999,"REV_AT_EPOCH":561,"BSTAR":4.916231e-6,"MEAN_MOTION_DOT":-1.27e-6,"MEAN_MOTION_DDOT":0},{"OBJECT_NAME":"STARLINK-11118 [DTC]","OBJECT_ID":"2024-091B","EPOCH":"2026-01-02T18:12:46.940832","MEAN_MOTION":15.69687775,"ECCENTRICITY":6.43e-5,"INCLINATION":53.1606,"RA_OF_ASC_NODE":171.6125,"ARG_OF_PERICENTER":101.9439,"MEAN_ANOMALY":258.1651,"EPHEMERIS_TYPE":0,"CLASSIFICATION_TYPE":"U","NORAD_CAT_ID":59754,"ELEMENT_SET_NO":999,"REV_AT_EPOCH":9515,"BSTAR":-3.1165e-5,"MEAN_MOTION_DOT":-4.358e-5,"MEAN_MOTION_DDOT":0}]
