STARLINK-31821          
1 59737U 24090H   26002.80927903 -.00007496  00000+0 -26312-3 0  9998
2 59737  43.0017 195.6312 0002056 274.3303  85.7313 15.27578719 93360
STARLINK-31819          
1 59738U 24090J   26002.80541513  .00000041  00000+0  10991-4 0  9992
2 59738  42.9977 195.6031 0000703 262.3344  97.7428 15.27576680 93366
STARLINK-31726          
1 59739U 24090K   26002.58355369  .00001019  00000+0  46553-4 0  9999
2 59739  43.0033 196.5230 0001158 265.7666  94.3053 15.27577019 93333
STARLINK-31759          
1 59740U 24090L   26002.56571719  .00007390  00000+0  27815-3 0  9995
2 59740  43.0016 197.2431 0000892 250.8945 109.1810 15.27536581 93320
STARLINK-31818          
1 59741U 24090M   26001.90413676  .00000588  00000+0  30878-4 0  9996
2 59741  42.9983 200.8768 0000784 267.7841  92.2921 15.27578093 93226
STARLINK-31816          
1 59742U 24090N   26002.83367876  .00007424  00000+0  27885-3 0  9999
2 59742  42.9977 195.7925 0001021 275.9450  84.1286 15.27600286 93346
STARLINK-31809          
1 59743U 24090P   26002.53584775 -.00001856  00000+0 -57949-4 0  9996
2 59743  43.0003 190.0980 0000830 256.9043 103.1716 15.27582565 93408
STARLINK-31779          
1 59744U 24090Q   26002.52587922  .00000728  00000+0  35982-4 0  9991
2 59744  43.0013 196.9515 0001023 282.9163  77.1574 15.27580763 93327
STARLINK-31805          
1 59745U 24090R   26002.51431306  .00004237  00000+0  16348-3 0  9998
2 59745  43.0025 196.8597 0001353 283.4682  76.6019 15.27563968 93324
STARLINK-31681          
1 59746U 24090S   26002.53969627  .00000286  00000+0  19926-4 0  9999
2 59746  42.9970 190.1283 0000840 282.1205  77.9552 15.27576939 93405
STARLINK-31636          
1 59747U 24090T   26002.59383952 -.00000030  00000+0  84527-5 0  9995
2 59747  43.0029 196.6002 0001339 272.5155  87.5544 15.27576173 93334
STARLINK-31640          
1 59748U 24090U   26002.80670026 -.00000487  00000+0 -81724-5 0  9994
2 59748  43.0000 195.6072 0001526 269.5477  90.5199 15.27577407 93365
STARLINK-31677          
1 59749U 24090V   26002.82340205 -.00000759  00000+0 -18077-4 0  9992
2 59749  42.9975 195.7358 0000944 277.0271  83.0473 15.27576678 93352
STARLINK-31783          
1 59750U 24090W   26002.83111170 -.00000799  00000+0 -19518-4 0  9997
2 59750  42.9986 195.7940 0000887 280.9419  79.1333 15.27582763 93359
STARLINK-31808          
1 59751U 24090X   26002.83738859  .00000801  00000+0  38610-4 0  9993
2 59751  42.9978 194.9800 0000700 268.8553  91.2218 15.27575514 93369
STARLINK-31822          
1 59752U 24090Y   26002.66668981 -.00000127  00000+0  49162-5 0  9990
2 59752  43.0001 196.2382 0001410 266.0653 113.8763 15.27575656  5613
STARLINK-11118 [DTC]    
1 59754U 24091B   26002.75887663 -.00004358  00000+0 -31165-4 0  9997
2 59754  53.1606 171.6125 0000643 101.9439 258.1651 15.69687775 95155
